{
  "type": "FeatureCollection",
  "features": [
    {
      "type": "Feature",
      "properties": {
        "norad_id": 36744,
        "name": "COMS 1",
        "group": "weather",
        "lat": 3.716524411750895,
        "lon": -160.57860039883226,
        "alt_km": 35785.512231510074,
        "timestamp": "2025-12-21T22:41:41.090745+00:00",
        "meta_object_name": "COMS 1",
        "meta_object_id": "2010-032A",
        "meta_epoch": "2025-12-21T13:48:29.244672",
        "meta_mean_motion": 1.00271671,
        "meta_eccentricity": 7.342e-05,
        "meta_inclination": 4.3603,
        "meta_ra_of_asc_node": 77.8986,
        "meta_arg_of_pericenter": 208.332,
        "meta_mean_anomaly": 139.4621,
        "meta_ephemeris_type": 0,
        "meta_classification_type": "U",
        "meta_norad_cat_id": 36744,
        "meta_element_set_no": 999,
        "meta_rev_at_epoch": 4930,
        "meta_bstar": 0,
        "meta_mean_motion_dot": -3.25e-06,
        "meta_mean_motion_ddot": 0,
        "tle_line1": "1 36744U 10032A   25355.57533848 -.00000325  00000+0  00000+0 0  9992",
        "tle_line2": "2 36744   4.3603  77.8986 0000734 208.3320 139.4621  1.00271671 49306"
      },
      "geometry": {
        "type": "Point",
        "coordinates": [
          -160.57860039883226,
          3.716524411750895
        ]
      }
    },
    {
      "type": "Feature",
      "properties": {
        "norad_id": 37214,
        "name": "FENGYUN 3B",
        "group": "weather",
        "lat": 78.7846682103578,
        "lon": -91.0405382531618,
        "alt_km": 844.6194883493054,
        "timestamp": "2025-12-21T22:41:41.090758+00:00",
        "meta_object_name": "FENGYUN 3B",
        "meta_object_id": "2010-059A",
        "meta_epoch": "2025-12-21T15:58:22.369152",
        "meta_mean_motion": 14.14792169,
        "meta_eccentricity": 0.00216656,
        "meta_inclination": 98.9896,
        "meta_ra_of_asc_node": 35.7051,
        "meta_arg_of_pericenter": 332.4272,
        "meta_mean_anomaly": 138.3698,
        "meta_ephemeris_type": 0,
        "meta_classification_type": "U",
        "meta_norad_cat_id": 37214,
        "meta_element_set_no": 999,
        "meta_rev_at_epoch": 78232,
        "meta_bstar": 3.7171085e-05,
        "meta_mean_motion_dot": 2.6e-07,
        "meta_mean_motion_ddot": 0,
        "tle_line1": "1 37214U 10059A   25355.66553668  .00000026  00000+0  37171-4 0  9997",
        "tle_line2": "2 37214  98.9896  35.7051 0021665 332.4272 138.3698 14.14792169782326"
      },
      "geometry": {
        "type": "Point",
        "coordinates": [
          -91.0405382531618,
          78.7846682103578
        ]
      }
    },
    {
      "type": "Feature",
      "properties": {
        "norad_id": 37849,
        "name": "SUOMI NPP",
        "group": "weather",
        "lat": 80.54681547118624,
        "lon": -178.6736076835585,
        "alt_km": 817.8366615159666,
        "timestamp": "2025-12-21T22:41:41.090769+00:00",
        "meta_object_name": "SUOMI NPP",
        "meta_object_id": "2011-061A",
        "meta_epoch": "2025-12-17T23:31:21.474624",
        "meta_mean_motion": 14.19515682,
        "meta_eccentricity": 0.00023932,
        "meta_inclination": 98.7779,
        "meta_ra_of_asc_node": 289.2746,
        "meta_arg_of_pericenter": 111.1248,
        "meta_mean_anomaly": 249.0184,
        "meta_ephemeris_type": 0,
        "meta_classification_type": "U",
        "meta_norad_cat_id": 37849,
        "meta_element_set_no": 999,
        "meta_rev_at_epoch": 73273,
        "meta_bstar": 4.8615036e-05,
        "meta_mean_motion_dot": 5.8e-07,
        "meta_mean_motion_ddot": 0,
        "tle_line1": "1 37849U 11061A   25351.98010966  .00000058  00000+0  48615-4 0  9995",
        "tle_line2": "2 37849  98.7779 289.2746 0002393 111.1248 249.0184 14.19515682732735"
      },
      "geometry": {
        "type": "Point",
        "coordinates": [
          -178.6736076835585,
          80.54681547118624
        ]
      }
    },
    {
      "type": "Feature",
      "properties": {
        "norad_id": 38552,
        "name": "METEOSAT-10 (MSG-3)",
        "group": "weather",
        "lat": 0.7436409836014671,
        "lon": 71.47166877726175,
        "alt_km": 35785.18068562502,
        "timestamp": "2025-12-21T22:41:41.090782+00:00",
        "meta_object_name": "METEOSAT-10 (MSG-3)",
        "meta_object_id": "2012-035B",
        "meta_epoch": "2025-12-21T08:03:51.374592",
        "meta_mean_motion": 1.00276748,
        "meta_eccentricity": 7.023e-05,
        "meta_inclination": 4.2476,
        "meta_ra_of_asc_node": 61.6997,
        "meta_arg_of_pericenter": 268.1719,
        "meta_mean_anomaly": 241.5558,
        "meta_ephemeris_type": 0,
        "meta_classification_type": "U",
        "meta_norad_cat_id": 38552,
        "meta_element_set_no": 999,
        "meta_rev_at_epoch": 4907,
        "meta_bstar": 0,
        "meta_mean_motion_dot": 1.6e-07,
        "meta_mean_motion_ddot": 0,
        "tle_line1": "1 38552U 12035B   25355.33601128  .00000016  00000+0  00000+0 0  9993",
        "tle_line2": "2 38552   4.2476  61.6997 0000702 268.1719 241.5558  1.00276748 49074"
      },
      "geometry": {
        "type": "Point",
        "coordinates": [
          71.47166877726175,
          0.7436409836014671
        ]
      }
    },
    {
      "type": "Feature",
      "properties": {
        "norad_id": 38771,
        "name": "METOP-B",
        "group": "weather",
        "lat": 8.124320309957852,
        "lon": 44.4983303432924,
        "alt_km": 823.390021553183,
        "timestamp": "2025-12-21T22:41:41.090794+00:00",
        "meta_object_name": "METOP-B",
        "meta_object_id": "2012-049A",
        "meta_epoch": "2025-12-21T14:12:32.737248",
        "meta_mean_motion": 14.21411522,
        "meta_eccentricity": 0.00031909,
        "meta_inclination": 98.6786,
        "meta_ra_of_asc_node": 45.4002,
        "meta_arg_of_pericenter": 125.4076,
        "meta_mean_anomaly": 234.74,
        "meta_ephemeris_type": 0,
        "meta_classification_type": "U",
        "meta_norad_cat_id": 38771,
        "meta_element_set_no": 999,
        "meta_rev_at_epoch": 68803,
        "meta_bstar": 7.229415e-05,
        "meta_mean_motion_dot": 1.14e-06,
        "meta_mean_motion_ddot": 0,
        "tle_line1": "1 38771U 12049A   25355.59204557  .00000114  00000+0  72294-4 0  9992",
        "tle_line2": "2 38771  98.6786  45.4002 0003190 125.4076 234.7400 14.21411522688033"
      },
      "geometry": {
        "type": "Point",
        "coordinates": [
          44.4983303432924,
          8.124320309957852
        ]
      }
    },
    {
      "type": "Feature",
      "properties": {
        "norad_id": 39216,
        "name": "INSAT-3D",
        "group": "weather",
        "lat": 1.3145262443442232,
        "lon": -159.33312613427228,
        "alt_km": 35778.591601698055,
        "timestamp": "2025-12-21T22:41:41.090807+00:00",
        "meta_object_name": "INSAT-3D",
        "meta_object_id": "2013-038B",
        "meta_epoch": "2025-12-21T13:48:51.708672",
        "meta_mean_motion": 1.00276489,
        "meta_eccentricity": 0.00018031,
        "meta_inclination": 1.4663,
        "meta_ra_of_asc_node": 84.8975,
        "meta_arg_of_pericenter": 152.8319,
        "meta_mean_anomaly": 189.3713,
        "meta_ephemeris_type": 0,
        "meta_classification_type": "U",
        "meta_norad_cat_id": 39216,
        "meta_element_set_no": 999,
        "meta_rev_at_epoch": 4529,
        "meta_bstar": 0,
        "meta_mean_motion_dot": -3.17e-06,
        "meta_mean_motion_ddot": 0,
        "tle_line1": "1 39216U 13038B   25355.57559848 -.00000317  00000+0  00000+0 0  9997",
        "tle_line2": "2 39216   1.4663  84.8975 0001803 152.8319 189.3713  1.00276489 45294"
      },
      "geometry": {
        "type": "Point",
        "coordinates": [
          -159.33312613427228,
          1.3145262443442232
        ]
      }
    },
    {
      "type": "Feature",
      "properties": {
        "norad_id": 39260,
        "name": "FENGYUN 3C",
        "group": "weather",
        "lat": 64.57845421127311,
        "lon": -45.11159158849822,
        "alt_km": 836.0506002922994,
        "timestamp": "2025-12-21T22:41:41.090818+00:00",
        "meta_object_name": "FENGYUN 3C",
        "meta_object_id": "2013-052A",
        "meta_epoch": "2025-12-21T13:54:09.220032",
        "meta_mean_motion": 14.15698774,
        "meta_eccentricity": 0.00147714,
        "meta_inclination": 98.4773,
        "meta_ra_of_asc_node": 332.8274,
        "meta_arg_of_pericenter": 170.3555,
        "meta_mean_anomaly": 189.7906,
        "meta_ephemeris_type": 0,
        "meta_classification_type": "U",
        "meta_norad_cat_id": 39260,
        "meta_element_set_no": 999,
        "meta_rev_at_epoch": 63343,
        "meta_bstar": 5.1003671e-05,
        "meta_mean_motion_dot": 5.9e-07,
        "meta_mean_motion_ddot": 0,
        "tle_line1": "1 39260U 13052A   25355.57927338  .00000059  00000+0  51004-4 0  9992",
        "tle_line2": "2 39260  98.4773 332.8274 0014771 170.3555 189.7906 14.15698774633436"
      },
      "geometry": {
        "type": "Point",
        "coordinates": [
          -45.11159158849822,
          64.57845421127311
        ]
      }
    }
  ]
}